STARLINK-37310          
1 68679U 26077T   26112.59968846 -.00770903  00000+0 -51655-2 0  9996
2 68679  97.2832 343.6738 0000794 121.8397 238.2947 15.77233980  1825
